UNKNOWN                 
1 87561U          25341.94893466  .00000045  00000+0  70304-3 0  9996
2 87561 102.0114  39.6195 0174335 301.7054 234.5970 12.32154503541842
UNKNOWN                 
1 87565U          25336.20453468  .00001475  00000+0  81637-3 0  9996
2 87565  99.9476 326.7882 0171672 199.3533 160.1059 14.05956757614956
UNKNOWN                 
1 87569U          25342.24292850 -.00000036  00000+0  65255-4 0  9999
2 87569 101.9881 159.4237 0055535 262.1838 274.2274 12.68540546557892
UNKNOWN                 
1 87587U          25341.09456399  .00000521  00000+0  17328-3 0  9996
2 87587  74.0238 113.3337 0019829 153.7328 206.4837 14.40054684632995
UNKNOWN                 
1 87590U          25337.06817903  .00000764  00000+0  45360-3 0  9990
2 87590  98.7885  14.4031 0025987 311.4342  78.7710 14.10305378152884
UNKNOWN                 
1 87616U          25336.00081455  .00000421  00000+0  15843-2 0  9999
2 87616  66.0341 169.6820 0633830 143.6568   8.8853 12.46878095534899
UNKNOWN                 
1 87624U          25342.56487754  .00009227  00000+0  14412-2 0  9992
2 87624  98.6807 279.7340 0096780 261.6356  97.3866 14.69948810579660
UNKNOWN                 
1 87650U          25341.74687418  .00022330  00000+0  44710-2 0  9993
2 87650 100.2688 155.8115 0033107 295.7105  64.0672 14.61456799 79038
UNKNOWN                 
1 87672U          25341.80407103  .00003654  00000+0  14651-2 0  9994
2 87672  70.8584  17.3314 0063905 280.3975  78.9955 14.27807105623751
UNKNOWN                 
1 87681U          25342.62934253  .00002422  00000+0  25558-2 0  9996
2 87681  66.7322 108.4155 0156003 165.3894 195.1762 13.71102067601278
UNKNOWN                 
1 87690U          25342.35194637  .00005686  00000+0  87244-3 0  9996
2 87690  65.7947   5.4184 0578315  49.7762 315.2450 14.00323279606762
UNKNOWN                 
1 87706U          25342.27836187  .00006515  00000+0  11492-2 0  9991
2 87706  98.6723 165.6232 0104582 281.7958 258.9134 14.64321564577861
