CCSDS_OMM_VERS = 2.0
CREATION_DATE  = 
ORIGINATOR     = 

OBJECT_NAME    = UNKNOWN
OBJECT_ID      = 
CENTER_NAME    = EARTH
REF_FRAME      = TEME
TIME_SYSTEM    = UTC
MEAN_ELEMENT_THEORY = SGP/SGP4

EPOCH          = 2025-12-07T22:46:27.954624
MEAN_MOTION    = 12.32154503
ECCENTRICITY   = .0174335
INCLINATION    = 102.0114
RA_OF_ASC_NODE = 39.6195
ARG_OF_PERICENTER = 301.7054
MEAN_ANOMALY   = 234.5970

EPHEMERIS_TYPE = 0
CLASSIFICATION_TYPE = U
NORAD_CAT_ID   = 87561
ELEMENT_SET_NO = 999
REV_AT_EPOCH   = 54184
BSTAR          = .70304E-3
MEAN_MOTION_DOT = .45E-6
MEAN_MOTION_DDOT = 0

CCSDS_OMM_VERS = 2.0
CREATION_DATE  = 
ORIGINATOR     = 

OBJECT_NAME    = UNKNOWN
OBJECT_ID      = 
CENTER_NAME    = EARTH
REF_FRAME      = TEME
TIME_SYSTEM    = UTC
MEAN_ELEMENT_THEORY = SGP/SGP4

EPOCH          = 2025-12-02T04:54:31.796352
MEAN_MOTION    = 14.05956757
ECCENTRICITY   = .0171672
INCLINATION    = 99.9476
RA_OF_ASC_NODE = 326.7882
ARG_OF_PERICENTER = 199.3533
MEAN_ANOMALY   = 160.1059

EPHEMERIS_TYPE = 0
CLASSIFICATION_TYPE = U
NORAD_CAT_ID   = 87565
ELEMENT_SET_NO = 999
REV_AT_EPOCH   = 61495
BSTAR          = .81637E-3
MEAN_MOTION_DOT = .1475E-4
MEAN_MOTION_DDOT = 0

CCSDS_OMM_VERS = 2.0
CREATION_DATE  = 
ORIGINATOR     = 

OBJECT_NAME    = UNKNOWN
OBJECT_ID      = 
CENTER_NAME    = EARTH
REF_FRAME      = TEME
TIME_SYSTEM    = UTC
MEAN_ELEMENT_THEORY = SGP/SGP4

EPOCH          = 2025-12-08T05:49:49.022400
MEAN_MOTION    = 12.68540546
ECCENTRICITY   = .0055535
INCLINATION    = 101.9881
RA_OF_ASC_NODE = 159.4237
ARG_OF_PERICENTER = 262.1838
MEAN_ANOMALY   = 274.2274

EPHEMERIS_TYPE = 0
CLASSIFICATION_TYPE = U
NORAD_CAT_ID   = 87569
ELEMENT_SET_NO = 999
REV_AT_EPOCH   = 55789
BSTAR          = .65255E-4
MEAN_MOTION_DOT = -.36E-6
MEAN_MOTION_DDOT = 0

CCSDS_OMM_VERS = 2.0
CREATION_DATE  = 
ORIGINATOR     = 

OBJECT_NAME    = UNKNOWN
OBJECT_ID      = 
CENTER_NAME    = EARTH
REF_FRAME      = TEME
TIME_SYSTEM    = UTC
MEAN_ELEMENT_THEORY = SGP/SGP4

EPOCH          = 2025-12-07T02:16:10.328736
MEAN_MOTION    = 14.40054684
ECCENTRICITY   = .0019829
INCLINATION    = 74.0238
RA_OF_ASC_NODE = 113.3337
ARG_OF_PERICENTER = 153.7328
MEAN_ANOMALY   = 206.4837

EPHEMERIS_TYPE = 0
CLASSIFICATION_TYPE = U
NORAD_CAT_ID   = 87587
ELEMENT_SET_NO = 999
REV_AT_EPOCH   = 63299
BSTAR          = .17328E-3
MEAN_MOTION_DOT = .521E-5
MEAN_MOTION_DDOT = 0

CCSDS_OMM_VERS = 2.0
CREATION_DATE  = 
ORIGINATOR     = 

OBJECT_NAME    = UNKNOWN
OBJECT_ID      = 
CENTER_NAME    = EARTH
REF_FRAME      = TEME
TIME_SYSTEM    = UTC
MEAN_ELEMENT_THEORY = SGP/SGP4

EPOCH          = 2025-12-03T01:38:10.668192
MEAN_MOTION    = 14.10305378
ECCENTRICITY   = .0025987
INCLINATION    = 98.7885
RA_OF_ASC_NODE = 14.4031
ARG_OF_PERICENTER = 311.4342
MEAN_ANOMALY   = 78.7710

EPHEMERIS_TYPE = 0
CLASSIFICATION_TYPE = U
NORAD_CAT_ID   = 87590
ELEMENT_SET_NO = 999
REV_AT_EPOCH   = 15288
BSTAR          = .4536E-3
MEAN_MOTION_DOT = .764E-5
MEAN_MOTION_DDOT = 0

CCSDS_OMM_VERS = 2.0
CREATION_DATE  = 
ORIGINATOR     = 

OBJECT_NAME    = UNKNOWN
OBJECT_ID      = 
CENTER_NAME    = EARTH
REF_FRAME      = TEME
TIME_SYSTEM    = UTC
MEAN_ELEMENT_THEORY = SGP/SGP4

EPOCH          = 2025-12-02T00:01:10.377120
MEAN_MOTION    = 12.46878095
ECCENTRICITY   = .063383
INCLINATION    = 66.0341
RA_OF_ASC_NODE = 169.6820
ARG_OF_PERICENTER = 143.6568
MEAN_ANOMALY   = 8.8853

EPHEMERIS_TYPE = 0
CLASSIFICATION_TYPE = U
NORAD_CAT_ID   = 87616
ELEMENT_SET_NO = 999
REV_AT_EPOCH   = 53489
BSTAR          = .15843E-2
MEAN_MOTION_DOT = .421E-5
MEAN_MOTION_DDOT = 0

CCSDS_OMM_VERS = 2.0
CREATION_DATE  = 
ORIGINATOR     = 

OBJECT_NAME    = UNKNOWN
OBJECT_ID      = 
CENTER_NAME    = EARTH
REF_FRAME      = TEME
TIME_SYSTEM    = UTC
MEAN_ELEMENT_THEORY = SGP/SGP4

EPOCH          = 2025-12-08T13:33:25.419456
MEAN_MOTION    = 14.69948810
ECCENTRICITY   = .009678
INCLINATION    = 98.6807
RA_OF_ASC_NODE = 279.7340
ARG_OF_PERICENTER = 261.6356
MEAN_ANOMALY   = 97.3866

EPHEMERIS_TYPE = 0
CLASSIFICATION_TYPE = U
NORAD_CAT_ID   = 87624
ELEMENT_SET_NO = 999
REV_AT_EPOCH   = 57966
BSTAR          = .14412E-2
MEAN_MOTION_DOT = .9227E-4
MEAN_MOTION_DDOT = 0

CCSDS_OMM_VERS = 2.0
CREATION_DATE  = 
ORIGINATOR     = 

OBJECT_NAME    = UNKNOWN
OBJECT_ID      = 
CENTER_NAME    = EARTH
REF_FRAME      = TEME
TIME_SYSTEM    = UTC
MEAN_ELEMENT_THEORY = SGP/SGP4

EPOCH          = 2025-12-07T17:55:29.929152
MEAN_MOTION    = 14.61456799
ECCENTRICITY   = .0033107
INCLINATION    = 100.2688
RA_OF_ASC_NODE = 155.8115
ARG_OF_PERICENTER = 295.7105
MEAN_ANOMALY   = 64.0672

EPHEMERIS_TYPE = 0
CLASSIFICATION_TYPE = U
NORAD_CAT_ID   = 87650
ELEMENT_SET_NO = 999
REV_AT_EPOCH   = 7903
BSTAR          = .4471E-2
MEAN_MOTION_DOT = .2233E-3
MEAN_MOTION_DDOT = 0

CCSDS_OMM_VERS = 2.0
CREATION_DATE  = 
ORIGINATOR     = 

OBJECT_NAME    = UNKNOWN
OBJECT_ID      = 
CENTER_NAME    = EARTH
REF_FRAME      = TEME
TIME_SYSTEM    = UTC
MEAN_ELEMENT_THEORY = SGP/SGP4

EPOCH          = 2025-12-07T19:17:51.736992
MEAN_MOTION    = 14.27807105
ECCENTRICITY   = .0063905
INCLINATION    = 70.8584
RA_OF_ASC_NODE = 17.3314
ARG_OF_PERICENTER = 280.3975
MEAN_ANOMALY   = 78.9955

EPHEMERIS_TYPE = 0
CLASSIFICATION_TYPE = U
NORAD_CAT_ID   = 87672
ELEMENT_SET_NO = 999
REV_AT_EPOCH   = 62375
BSTAR          = .14651E-2
MEAN_MOTION_DOT = .3654E-4
MEAN_MOTION_DDOT = 0

CCSDS_OMM_VERS = 2.0
CREATION_DATE  = 
ORIGINATOR     = 

OBJECT_NAME    = UNKNOWN
OBJECT_ID      = 
CENTER_NAME    = EARTH
REF_FRAME      = TEME
TIME_SYSTEM    = UTC
MEAN_ELEMENT_THEORY = SGP/SGP4

EPOCH          = 2025-12-08T15:06:15.194592
MEAN_MOTION    = 13.71102067
ECCENTRICITY   = .0156003
INCLINATION    = 66.7322
RA_OF_ASC_NODE = 108.4155
ARG_OF_PERICENTER = 165.3894
MEAN_ANOMALY   = 195.1762

EPHEMERIS_TYPE = 0
CLASSIFICATION_TYPE = U
NORAD_CAT_ID   = 87681
ELEMENT_SET_NO = 999
REV_AT_EPOCH   = 60127
BSTAR          = .25558E-2
MEAN_MOTION_DOT = .2422E-4
MEAN_MOTION_DDOT = 0

CCSDS_OMM_VERS = 2.0
CREATION_DATE  = 
ORIGINATOR     = 

OBJECT_NAME    = UNKNOWN
OBJECT_ID      = 
CENTER_NAME    = EARTH
REF_FRAME      = TEME
TIME_SYSTEM    = UTC
MEAN_ELEMENT_THEORY = SGP/SGP4

EPOCH          = 2025-12-08T08:26:48.166368
MEAN_MOTION    = 14.00323279
ECCENTRICITY   = .0578315
INCLINATION    = 65.7947
RA_OF_ASC_NODE = 5.4184
ARG_OF_PERICENTER = 49.7762
MEAN_ANOMALY   = 315.2450

EPHEMERIS_TYPE = 0
CLASSIFICATION_TYPE = U
NORAD_CAT_ID   = 87690
ELEMENT_SET_NO = 999
REV_AT_EPOCH   = 60676
BSTAR          = .87244E-3
MEAN_MOTION_DOT = .5686E-4
MEAN_MOTION_DDOT = 0

CCSDS_OMM_VERS = 2.0
CREATION_DATE  = 
ORIGINATOR     = 

OBJECT_NAME    = UNKNOWN
OBJECT_ID      = 
CENTER_NAME    = EARTH
REF_FRAME      = TEME
TIME_SYSTEM    = UTC
MEAN_ELEMENT_THEORY = SGP/SGP4

EPOCH          = 2025-12-08T06:40:50.465568
MEAN_MOTION    = 14.64321564
ECCENTRICITY   = .0104582
INCLINATION    = 98.6723
RA_OF_ASC_NODE = 165.6232
ARG_OF_PERICENTER = 281.7958
MEAN_ANOMALY   = 258.9134

EPHEMERIS_TYPE = 0
CLASSIFICATION_TYPE = U
NORAD_CAT_ID   = 87706
ELEMENT_SET_NO = 999
REV_AT_EPOCH   = 57786
BSTAR          = .11492E-2
MEAN_MOTION_DOT = .6515E-4
MEAN_MOTION_DDOT = 0

